{
    "links": {
        "self": "http://www.neowsapp.com/rest/v1/neo/3826624?api_key=iIulBulltgU6a56xZRHN4H3l9WmuAYTsLGpBGhQ2"
    },
    "id": "3826624",
    "neo_reference_id": "3826624",
    "name": "(2018 PW7)",
    "designation": "2018 PW7",
    "nasa_jpl_url": "http://ssd.jpl.nasa.gov/sbdb.cgi?sstr=3826624",
    "absolute_magnitude_h": 24.3,
    "estimated_diameter": {
        "kilometers": {
            "estimated_diameter_min": 0.0366906138,
            "estimated_diameter_max": 0.0820427065
        },
        "meters": {
            "estimated_diameter_min": 36.6906137531,
            "estimated_diameter_max": 82.0427064882
        },
        "miles": {
            "estimated_diameter_min": 0.0227984834,
            "estimated_diameter_max": 0.0509789586
        },
        "feet": {
            "estimated_diameter_min": 120.3760332259,
            "estimated_diameter_max": 269.1689931548
        }
    },
    "is_potentially_hazardous_asteroid": false,
    "close_approach_data": [
        {
            "close_approach_date": "1947-01-17",
            "close_approach_date_full": "1947-Jan-17 19:24",
            "epoch_date_close_approach": -724394160000,
            "relative_velocity": {
                "kilometers_per_second": "20.8203059947",
                "kilometers_per_hour": "74953.1015807915",
                "miles_per_hour": "46572.9424794646"
            },
            "miss_distance": {
                "astronomical": "0.3559351877",
                "lunar": "138.4587880153",
                "kilometers": "53247145.937970199",
                "miles": "33086242.2564147862"
            },
            "orbiting_body": "Earth"
        },
        {
            "close_approach_date": "2012-01-22",
            "close_approach_date_full": "2012-Jan-22 02:31",
            "epoch_date_close_approach": 1327199460000,
            "relative_velocity": {
                "kilometers_per_second": "22.9468957061",
                "kilometers_per_hour": "82608.8245419222",
                "miles_per_hour": "51329.9110049516"
            },
            "miss_distance": {
                "astronomical": "0.4259640183",
                "lunar": "165.7000031187",
                "kilometers": "63723309.834321021",
                "miles": "39595828.6480752498"
            },
            "orbiting_body": "Earth"
        },
        {
            "close_approach_date": "2018-06-21",
            "close_approach_date_full": "2018-Jun-21 07:10",
            "epoch_date_close_approach": 1529565000000,
            "relative_velocity": {
                "kilometers_per_second": "9.6982939975",
                "kilometers_per_hour": "34913.8583911082",
                "miles_per_hour": "21694.113843075"
            },
            "miss_distance": {
                "astronomical": "0.0467179599",
                "lunar": "18.1732864011",
                "kilometers": "6988907.291785413",
                "miles": "4342705.6171801794"
            },
            "orbiting_body": "Mars"
        },
        {
            "close_approach_date": "2018-08-23",
            "close_approach_date_full": "2018-Aug-23 09:49",
            "epoch_date_close_approach": 1535017740000,
            "relative_velocity": {
                "kilometers_per_second": "10.6051262719",
                "kilometers_per_hour": "38178.4545787457",
                "miles_per_hour": "23722.6069575545"
            },
            "miss_distance": {
                "astronomical": "0.0290503954",
                "lunar": "11.3006038106",
                "kilometers": "4345877.274497798",
                "miles": "2700402.9190256924"
            },
            "orbiting_body": "Earth"
        },
        {
            "close_approach_date": "2024-01-13",
            "close_approach_date_full": "2024-Jan-13 15:45",
            "epoch_date_close_approach": 1705160700000,
            "relative_velocity": {
                "kilometers_per_second": "17.6730715072",
                "kilometers_per_hour": "63623.0574260975",
                "miles_per_hour": "39532.893654566"
            },
            "miss_distance": {
                "astronomical": "0.2513992282",
                "lunar": "97.7942997698",
                "kilometers": "37608789.058363934",
                "miles": "23369017.8851089292"
            },
            "orbiting_body": "Earth"
        }
    ],
    "orbital_data": {
        "orbit_id": "10",
        "orbit_determination_date": "2018-09-01 07:02:33",
        "first_observation_date": "2018-08-05",
        "last_observation_date": "2018-08-24",
        "data_arc_in_days": 19,
        "observations_used": 60,
        "orbit_uncertainty": "7",
        "minimum_orbit_intersection": ".0284355",
        "jupiter_tisserand_invariant": "4.594",
        "epoch_osculation": "2459000.5",
        "eccentricity": ".4073833393391884",
        "semi_major_axis": "1.429427177549648",
        "inclination": "5.205766663838344",
        "ascending_node_longitude": "313.4769459693468",
        "orbital_period": "624.2254619644009",
        "perihelion_distance": ".8471023606172815",
        "perihelion_argument": "82.51349507049518",
        "aphelion_distance": "2.011751994482015",
        "perihelion_time": "2459027.929227808057",
        "mean_anomaly": "344.181161114726",
        "mean_motion": ".5767146999532847",
        "equinox": "J2000",
        "orbit_class": {
            "orbit_class_type": "APO",
            "orbit_class_description": "Near-Earth asteroid orbits which cross the Earth’s orbit similar to that of 1862 Apollo",
            "orbit_class_range": "a (semi-major axis) > 1.0 AU; q (perihelion) < 1.017 AU"
        }
    },
    "is_sentry_object": false
}